[{"OBJECT_NAME":"STARLINK-2636","OBJECT_ID":"2021-038E","EPOCH":"2026-03-09T00:59:44.962368","MEAN_MOTION":15.30240385,"ECCENTRICITY":0.00011991,"INCLINATION":53.1585,"RA_OF_ASC_NODE":1.138,"ARG_OF_PERICENTER":105.2085,"MEAN_ANOMALY":254.9048,"EPHEMERIS_TYPE":0,"CLASSIFICATION_TYPE":"U","NORAD_CAT_ID":48357,"ELEMENT_SET_NO":999,"REV_AT_EPOCH":26698,"BSTAR":0.00052220214,"MEAN_MOTION_DOT":0.00015158,"MEAN_MOTION_DDOT":0},{"OBJECT_NAME":"SCS-01 M","OBJECT_ID":"2025-100M","EPOCH":"2026-03-09T23:50:15.541152","MEAN_MOTION":15.31880861,"ECCENTRICITY":0.00078021,"INCLINATION":97.3725,"RA_OF_ASC_NODE":145.6908,"ARG_OF_PERICENTER":292.3826,"MEAN_ANOMALY":67.6588,"EPHEMERIS_TYPE":0,"CLASSIFICATION_TYPE":"U","NORAD_CAT_ID":63993,"ELEMENT_SET_NO":999,"REV_AT_EPOCH":4565,"BSTAR":0.0012010051,"MEAN_MOTION_DOT":0.00037061,"MEAN_MOTION_DDOT":0}]
